STARLINK-11273 [DTC]    
1 60913U 24154L   25245.98016101  .00001899  00000+0  20516-4 0  9993
2 60913  53.1592 336.5190 0001193  87.9228 272.1926 15.69725354 59025
STARLINK-11248 [DTC]    
1 60914U 24154M   25245.97525845  .00002361  00000+0  24335-4 0  9991
2 60914  53.1596 336.4844 0001343  98.7445 261.3725 15.69721135 59023
STARLINK-11271 [DTC]    
1 60915U 24154N   25246.22503463  .00000892  00000+0  12229-4 0  9999
2 60915  53.1590 335.1969 0001897  84.5760 275.5474 15.69718910 59068
STARLINK-32371          
1 60916U 24154P   25246.81580643 -.00000313  00000+0  15734-5 0  9994
2 60916  53.1608  71.8601 0001234 113.0748 247.0383 15.30183549 57721
STARLINK-32369          
1 60917U 24154Q   25246.79680698 -.00000305  00000+0  18423-5 0  9992
2 60917  53.1604  71.7428 0001186  84.7112 275.4024 15.30190172 57726
STARLINK-32317          
1 60918U 24154R   25246.77582051 -.00001494  00000+0 -38339-4 0  9993
2 60918  53.1613  72.3210 0001221  94.0475 266.0666 15.30177471 57713
STARLINK-32367          
1 60919U 24154S   25246.78520101  .00000111  00000+0  15879-4 0  9990
2 60919  53.1604  71.6679 0000954  76.6172 283.4936 15.30174860 57720
STARLINK-32345          
1 60920U 24154T   25246.77687209 -.00001233  00000+0 -29517-4 0  9996
2 60920  53.1603  72.3256 0001213  96.3654 263.7485 15.30181566 57724
STARLINK-32356          
1 60921U 24154U   25246.80630470 -.00000121  00000+0  80527-5 0  9992
2 60921  53.1615  71.7999 0001284 111.3850 248.7288 15.30187394 57739
STARLINK-32274          
1 60922U 24154V   25246.75786911  .00001740  00000+0  70826-4 0  9996
2 60922  53.1586  72.2049 0000486  70.7830 289.3223 15.30200129 57729
STARLINK-32373          
1 60923U 24154W   25246.76737582 -.00001834  00000+0 -49822-4 0  9996
2 60923  53.1612  72.2631 0001301  98.3227 261.7922 15.30182188 57724
STARLINK-11239 [DTC]    
1 60924U 24155A   25246.54102989 -.00001835  00000+0 -10286-4 0  9994
2 60924  53.1594 184.1935 0001649  58.2806 301.8373 15.69695303 59006
STARLINK-11245 [DTC]    
1 60925U 24155B   25246.52631497 -.00002611  00000+0 -16707-4 0  9991
2 60925  53.1599 184.0961 0001383 120.6159 239.4996 15.69697469 59002
STARLINK-11244 [DTC]    
1 60926U 24155C   25246.00712391  .00001727  00000+0  19099-4 0  9990
2 60926  53.1603 186.5408 0001412  89.1565 270.9614 15.69724292 58972
STARLINK-11243 [DTC]    
1 60927U 24155D   25246.20306882 -.00003733  00000+0 -25992-4 0  9997
2 60927  53.1593 185.6331 0001212  86.4894 273.6263 15.69687560 58953
STARLINK-11238 [DTC]    
1 60928U 24155E   25246.25690954 -.00000061  00000+0  43532-5 0  9990
2 60928  53.1595 185.2536 0000925  75.0436 285.0685 15.69707154 59010
