[{"OBJECT_NAME":"STARLINK-11273 [DTC]","OBJECT_ID":"2024-154L","EPOCH":"2025-09-02T23:31:25.911264","MEAN_MOTION":15.69725354,"ECCENTRICITY":0.00011931,"INCLINATION":53.1592,"RA_OF_ASC_NODE":336.519,"ARG_OF_PERICENTER":87.9228,"MEAN_ANOMALY":272.1926,"EPHEMERIS_TYPE":0,"CLASSIFICATION_TYPE":"U","NORAD_CAT_ID":60913,"ELEMENT_SET_NO":999,"REV_AT_EPOCH":5902,"BSTAR":2.051557e-5,"MEAN_MOTION_DOT":1.899e-5,"MEAN_MOTION_DDOT":0},{"OBJECT_NAME":"STARLINK-11248 [DTC]","OBJECT_ID":"2024-154M","EPOCH":"2025-09-02T23:24:22.330080","MEAN_MOTION":15.69721135,"ECCENTRICITY":0.0001343,"INCLINATION":53.1596,"RA_OF_ASC_NODE":336.4844,"ARG_OF_PERICENTER":98.7445,"MEAN_ANOMALY":261.3725,"EPHEMERIS_TYPE":0,"CLASSIFICATION_TYPE":"U","NORAD_CAT_ID":60914,"ELEMENT_SET_NO":999,"REV_AT_EPOCH":5902,"BSTAR":2.4335201e-5,"MEAN_MOTION_DOT":2.361e-5,"MEAN_MOTION_DDOT":0},{"OBJECT_NAME":"STARLINK-11271 [DTC]","OBJECT_ID":"2024-154N","EPOCH":"2025-09-03T05:24:02.992032","MEAN_MOTION":15.6971891,"ECCENTRICITY":0.00018978,"INCLINATION":53.159,"RA_OF_ASC_NODE":335.1969,"ARG_OF_PERICENTER":84.576,"MEAN_ANOMALY":275.5474,"EPHEMERIS_TYPE":0,"CLASSIFICATION_TYPE":"U","NORAD_CAT_ID":60915,"ELEMENT_SET_NO":999,"REV_AT_EPOCH":5906,"BSTAR":1.2229288e-5,"MEAN_MOTION_DOT":8.92e-6,"MEAN_MOTION_DDOT":0},{"OBJECT_NAME":"STARLINK-32371","OBJECT_ID":"2024-154P","EPOCH":"2025-09-03T19:34:45.675552","MEAN_MOTION":15.30183549,"ECCENTRICITY":0.00012345,"INCLINATION":53.1608,"RA_OF_ASC_NODE":71.8601,"ARG_OF_PERICENTER":113.0748,"MEAN_ANOMALY":247.0383,"EPHEMERIS_TYPE":0,"CLASSIFICATION_TYPE":"U","NORAD_CAT_ID":60916,"ELEMENT_SET_NO":999,"REV_AT_EPOCH":5772,"BSTAR":1.57338e-6,"MEAN_MOTION_DOT":-3.13e-6,"MEAN_MOTION_DDOT":0},{"OBJECT_NAME":"STARLINK-32369","OBJECT_ID":"2024-154Q","EPOCH":"2025-09-03T19:07:24.123072","MEAN_MOTION":15.30190172,"ECCENTRICITY":0.0001186,"INCLINATION":53.1604,"RA_OF_ASC_NODE":71.7428,"ARG_OF_PERICENTER":84.7112,"MEAN_ANOMALY":275.4024,"EPHEMERIS_TYPE":0,"CLASSIFICATION_TYPE":"U","NORAD_CAT_ID":60917,"ELEMENT_SET_NO":999,"REV_AT_EPOCH":5772,"BSTAR":1.842342e-6,"MEAN_MOTION_DOT":-3.05e-6,"MEAN_MOTION_DDOT":0},{"OBJECT_NAME":"STARLINK-32317","OBJECT_ID":"2024-154R","EPOCH":"2025-09-03T18:37:10.892064","MEAN_MOTION":15.30177471,"ECCENTRICITY":0.00012215,"INCLINATION":53.1613,"RA_OF_ASC_NODE":72.321,"ARG_OF_PERICENTER":94.0475,"MEAN_ANOMALY":266.0666,"EPHEMERIS_TYPE":0,"CLASSIFICATION_TYPE":"U","NORAD_CAT_ID":60918,"ELEMENT_SET_NO":999,"REV_AT_EPOCH":5771,"BSTAR":-3.8339179e-5,"MEAN_MOTION_DOT":-1.494e-5,"MEAN_MOTION_DDOT":0},{"OBJECT_NAME":"STARLINK-32367","OBJECT_ID":"2024-154S","EPOCH":"2025-09-03T18:50:41.367264","MEAN_MOTION":15.3017486,"ECCENTRICITY":9.544e-5,"INCLINATION":53.1604,"RA_OF_ASC_NODE":71.6679,"ARG_OF_PERICENTER":76.6172,"MEAN_ANOMALY":283.4936,"EPHEMERIS_TYPE":0,"CLASSIFICATION_TYPE":"U","NORAD_CAT_ID":60919,"ELEMENT_SET_NO":999,"REV_AT_EPOCH":5772,"BSTAR":1.5878586e-5,"MEAN_MOTION_DOT":1.11e-6,"MEAN_MOTION_DDOT":0},{"OBJECT_NAME":"STARLINK-32345","OBJECT_ID":"2024-154T","EPOCH":"2025-09-03T18:38:41.748576","MEAN_MOTION":15.30181566,"ECCENTRICITY":0.00012132,"INCLINATION":53.1603,"RA_OF_ASC_NODE":72.3256,"ARG_OF_PERICENTER":96.3654,"MEAN_ANOMALY":263.7485,"EPHEMERIS_TYPE":0,"CLASSIFICATION_TYPE":"U","NORAD_CAT_ID":60920,"ELEMENT_SET_NO":999,"REV_AT_EPOCH":5772,"BSTAR":-2.9516835e-5,"MEAN_MOTION_DOT":-1.233e-5,"MEAN_MOTION_DDOT":0},{"OBJECT_NAME":"STARLINK-32356","OBJECT_ID":"2024-154U","EPOCH":"2025-09-03T19:21:04.726080","MEAN_MOTION":15.30187394,"ECCENTRICITY":0.00012845,"INCLINATION":53.1615,"RA_OF_ASC_NODE":71.7999,"ARG_OF_PERICENTER":111.385,"MEAN_ANOMALY":248.7288,"EPHEMERIS_TYPE":0,"CLASSIFICATION_TYPE":"U","NORAD_CAT_ID":60921,"ELEMENT_SET_NO":999,"REV_AT_EPOCH":5773,"BSTAR":8.052724e-6,"MEAN_MOTION_DOT":-1.21e-6,"MEAN_MOTION_DDOT":0},{"OBJECT_NAME":"STARLINK-32274","OBJECT_ID":"2024-154V","EPOCH":"2025-09-03T18:11:19.891104","MEAN_MOTION":15.30200129,"ECCENTRICITY":4.865e-5,"INCLINATION":53.1586,"RA_OF_ASC_NODE":72.2049,"ARG_OF_PERICENTER":70.783,"MEAN_ANOMALY":289.3223,"EPHEMERIS_TYPE":0,"CLASSIFICATION_TYPE":"U","NORAD_CAT_ID":60922,"ELEMENT_SET_NO":999,"REV_AT_EPOCH":5772,"BSTAR":7.0826242e-5,"MEAN_MOTION_DOT":1.74e-5,"MEAN_MOTION_DDOT":0},{"OBJECT_NAME":"STARLINK-32373","OBJECT_ID":"2024-154W","EPOCH":"2025-09-03T18:25:01.270848","MEAN_MOTION":15.30182188,"ECCENTRICITY":0.00013019,"INCLINATION":53.1612,"RA_OF_ASC_NODE":72.2631,"ARG_OF_PERICENTER":98.3227,"MEAN_ANOMALY":261.7922,"EPHEMERIS_TYPE":0,"CLASSIFICATION_TYPE":"U","NORAD_CAT_ID":60923,"ELEMENT_SET_NO":999,"REV_AT_EPOCH":5772,"BSTAR":-4.9822092e-5,"MEAN_MOTION_DOT":-1.834e-5,"MEAN_MOTION_DDOT":0},{"OBJECT_NAME":"STARLINK-11239 [DTC]","OBJECT_ID":"2024-155A","EPOCH":"2025-09-03T12:59:04.982496","MEAN_MOTION":15.69695303,"ECCENTRICITY":0.00016493,"INCLINATION":53.1594,"RA_OF_ASC_NODE":184.1935,"ARG_OF_PERICENTER":58.2806,"MEAN_ANOMALY":301.8373,"EPHEMERIS_TYPE":0,"CLASSIFICATION_TYPE":"U","NORAD_CAT_ID":60924,"ELEMENT_SET_NO":999,"REV_AT_EPOCH":5900,"BSTAR":-1.0286262e-5,"MEAN_MOTION_DOT":-1.835e-5,"MEAN_MOTION_DDOT":0},{"OBJECT_NAME":"STARLINK-11245 [DTC]","OBJECT_ID":"2024-155B","EPOCH":"2025-09-03T12:37:53.613408","MEAN_MOTION":15.69697469,"ECCENTRICITY":0.00013837,"INCLINATION":53.1599,"RA_OF_ASC_NODE":184.0961,"ARG_OF_PERICENTER":120.6159,"MEAN_ANOMALY":239.4996,"EPHEMERIS_TYPE":0,"CLASSIFICATION_TYPE":"U","NORAD_CAT_ID":60925,"ELEMENT_SET_NO":999,"REV_AT_EPOCH":5900,"BSTAR":-1.6706942e-5,"MEAN_MOTION_DOT":-2.611e-5,"MEAN_MOTION_DDOT":0},{"OBJECT_NAME":"STARLINK-11244 [DTC]","OBJECT_ID":"2024-155C","EPOCH":"2025-09-03T00:10:15.505824","MEAN_MOTION":15.69724292,"ECCENTRICITY":0.00014128,"INCLINATION":53.1603,"RA_OF_ASC_NODE":186.5408,"ARG_OF_PERICENTER":89.1565,"MEAN_ANOMALY":270.9614,"EPHEMERIS_TYPE":0,"CLASSIFICATION_TYPE":"U","NORAD_CAT_ID":60926,"ELEMENT_SET_NO":999,"REV_AT_EPOCH":5897,"BSTAR":1.9099358e-5,"MEAN_MOTION_DOT":1.727e-5,"MEAN_MOTION_DDOT":0},{"OBJECT_NAME":"STARLINK-11243 [DTC]","OBJECT_ID":"2024-155D","EPOCH":"2025-09-03T04:52:25.146048","MEAN_MOTION":15.6968756,"ECCENTRICITY":0.00012122,"INCLINATION":53.1593,"RA_OF_ASC_NODE":185.6331,"ARG_OF_PERICENTER":86.4894,"MEAN_ANOMALY":273.6263,"EPHEMERIS_TYPE":0,"CLASSIFICATION_TYPE":"U","NORAD_CAT_ID":60927,"ELEMENT_SET_NO":999,"REV_AT_EPOCH":5895,"BSTAR":-2.5991781e-5,"MEAN_MOTION_DOT":-3.733e-5,"MEAN_MOTION_DDOT":0},{"OBJECT_NAME":"STARLINK-11238 [DTC]","OBJECT_ID":"2024-155E","EPOCH":"2025-09-03T06:09:56.984256","MEAN_MOTION":15.69707154,"ECCENTRICITY":9.258e-5,"INCLINATION":53.1595,"RA_OF_ASC_NODE":185.2536,"ARG_OF_PERICENTER":75.0436,"MEAN_ANOMALY":285.0685,"EPHEMERIS_TYPE":0,"CLASSIFICATION_TYPE":"U","NORAD_CAT_ID":60928,"ELEMENT_SET_NO":999,"REV_AT_EPOCH":5901,"BSTAR":4.353184e-6,"MEAN_MOTION_DOT":-6.1e-7,"MEAN_MOTION_DDOT":0}]
